SAOCOM 1A               
1 43641U 18076A   26077.53688637  .00000243  00000+0  37145-4 0  9990
2 43641  97.8892 265.5844 0001437  88.2307 271.9071 14.82149157402678
H-2A R/B                
1 43682U 18084L   26077.56063755  .00014742  00000+0  34781-3 0  9996
2 43682  98.8719 296.8474 0024687 354.8888   5.2098 15.41717347407148
SAOCOM 1B               
1 46265U 20059A   26077.77062554  .00000457  00000+0  63952-4 0  9991
2 46265  97.8901 264.9130 0001428  93.2230 266.9146 14.82146128300091
CSS (TIANHE)            
1 48274U 21035A   26077.60901874  .00030981  00000+0  35872-3 0  9991
2 48274  41.4670 153.8729 0006034 328.4724  31.5753 15.61143380279001
CZ-2C R/B               
1 52794U 22058K   26077.57557201  .00027624  00000+0  39611-3 0  9991
2 52794  50.1878 272.5578 0041907 238.7090 120.9774 15.54860214211510
CZ-2C R/B               
1 54039U 22132E   26077.27499836  .00034194  00000+0  37926-3 0  9991
2 54039  97.2952  80.8573 0019743  64.2408 296.0885 15.62634555191715
GSLV R/B                
1 54149U 22138AN  26077.47871046  .00002166  00000+0  18554-3 0  9998
2 54149  87.3877 163.4208 0023888 117.3396 243.0272 14.96834370185243
XRISM                   
1 57800U 23137A   26077.55531808  .00004499  00000+0  25283-3 0  9991
2 57800  31.0008 226.3134 0007925 128.2421 231.8932 15.11597369139130
ACS3                    
1 59588U 24077B   26077.56912828  .00010976  00000+0  87551-2 0  9998
2 59588  97.2021  16.6855 0067796  55.8075 304.9491 13.89981511 95431
SZ-21 MODULE            
1 66515U 25246C   26077.53946753  .00028586  00000+0  24029-3 0  9994
2 66515  41.4738 148.8547 0000477 292.1706  67.9085 15.69230343 19465
